$$SOE
2461295.500000000, A.D. 2026-Sep-12 00:00:00.0000, -5.017784790669739E+08, 6.347924519855894E+06, -5.261400763867597E+07,
2461302.500000000, A.D. 2026-Sep-19 00:00:00.0000, -5.018869056678292E+08, -3.127298470927257E+06, -5.141196715846141E+07,
2461309.500000000, A.D. 2026-Sep-26 00:00:00.0000, -5.018055951841874E+08, -1.260126739091127E+07, -5.019048118126258E+07,
2461316.500000000, A.D. 2026-Oct-03 00:00:00.0000, -5.015345168801060E+08, -2.207040326075085E+07, -4.895000550694665E+07,
2461323.500000000, A.D. 2026-Oct-10 00:00:00.0000, -5.010737001947096E+08, -3.153112621988957E+07, -4.769100235214174E+07,
2461330.500000000, A.D. 2026-Oct-17 00:00:00.0000, -5.004232348893239E+08, -4.097985618302773E+07, -4.641394026190637E+07,
2461337.500000000, A.D. 2026-Oct-24 00:00:00.0000, -4.995832712086086E+08, -5.041301359641697E+07, -4.511929402888311E+07,
2461344.500000000, A.D. 2026-Oct-31 00:00:00.0000, -4.985540199567131E+08, -5.982702036123643E+07, -4.380754463420317E+07,
2461351.500000000, A.D. 2026-Nov-07 00:00:00.0000, -4.973357521491553E+08, -6.921830085052010E+07, -4.247917923490015E+07,
2461358.500000000, A.D. 2026-Nov-14 00:00:00.0000, -4.959287980390657E+08, -7.858328213278554E+07, -4.113469114337832E+07,
2461365.500000000, A.D. 2026-Nov-21 00:00:00.0000, -4.943335473289563E+08, -8.791839272136544E+07, -3.977457957668272E+07,
2461372.500000000, A.D. 2026-Nov-28 00:00:00.0000, -4.925504515663889E+08, -9.722006285873766E+07, -3.839934932968781E+07,
2461379.500000000, A.D. 2026-Dec-05 00:00:00.0000, -4.905800251050108E+08, -1.064847269926966E+08, -3.700951075763784E+07,
2461386.500000000, A.D. 2026-Dec-12 00:00:00.0000, -4.884228444655563E+08, -1.157088253331337E+08, -3.560557982835995E+07,
2461393.500000000, A.D. 2026-Dec-19 00:00:00.0000, -4.860795479826185E+08, -1.248888044835296E+08, -3.418807806993748E+07,
2461400.500000000, A.D. 2026-Dec-26 00:00:00.0000, -4.835508358790962E+08, -1.340211180165641E+08, -3.275753247146507E+07,
2461407.500000000, A.D. 2027-Jan-02 00:00:00.0000, -4.808374704930835E+08, -1.431022271859919E+08, -3.131447537770028E+07,
2461414.500000000, A.D. 2027-Jan-09 00:00:00.0000, -4.779402765412442E+08, -1.521286017554507E+08, -2.985944438656839E+07,
2461421.500000000, A.D. 2027-Jan-16 00:00:00.0000, -4.748601413844829E+08, -1.610967209360337E+08, -2.839298225187591E+07,
2461428.500000000, A.D. 2027-Jan-23 00:00:00.0000, -4.715980152512360E+08, -1.700030744727538E+08, -2.691563679852364E+07,
2461435.500000000, A.D. 2027-Jan-30 00:00:00.0000, -4.681549112319151E+08, -1.788441639278938E+08, -2.542796087116645E+07,
2461442.500000000, A.D. 2027-Feb-06 00:00:00.0000, -4.645319046205161E+08, -1.876165038210983E+08, -2.393051232727002E+07,
2461449.500000000, A.D. 2027-Feb-13 00:00:00.0000, -4.607301320634432E+08, -1.963166214063759E+08, -2.242385393241836E+07,
2461456.500000000, A.D. 2027-Feb-20 00:00:00.0000, -4.567507928784359E+08, -2.049410558777223E+08, -2.090855300561365E+07,
2461463.500000000, A.D. 2027-Feb-27 00:00:00.0000, -4.525951511476108E+08, -2.134863602189801E+08, -1.938518120545828E+07,
2461470.500000000, A.D. 2027-Mar-06 00:00:00.0000, -4.482645355675399E+08, -2.219491037770438E+08, -1.785431457720974E+07,
2461477.500000000, A.D. 2027-Mar-13 00:00:00.0000, -4.437603386569945E+08, -2.303258735096409E+08, -1.631653354659118E+07,
2461484.500000000, A.D. 2027-Mar-20 00:00:00.0000, -4.390840164515967E+08, -2.386132747429082E+08, -1.477242282509787E+07,
2461491.500000000, A.D. 2027-Mar-27 00:00:00.0000, -4.342370884834021E+08, -2.468079319883993E+08, -1.322257129031180E+07,
2461498.500000000, A.D. 2027-Apr-03 00:00:00.0000, -4.292211378426793E+08, -2.549064898676437E+08, -1.166757186376220E+07,
2461505.500000000, A.D. 2027-Apr-10 00:00:00.0000, -4.240378112604240E+08, -2.629056141211094E+08, -1.010802138993536E+07,
2461512.500000000, A.D. 2027-Apr-17 00:00:00.0000, -4.186888191886850E+08, -2.708019927155833E+08, -8.544520519410402E+06,
2461519.500000000, A.D. 2027-Apr-24 00:00:00.0000, -4.131759357981762E+08, -2.785923371119174E+08, -6.977673608236536E+06,
2461526.500000000, A.D. 2027-May-01 00:00:00.0000, -4.075009985920163E+08, -2.862733836652982E+08, -5.408088658552572E+06,
2461533.500000000, A.D. 2027-May-08 00:00:00.0000, -4.016659073265392E+08, -2.938418944097310E+08, -3.836377267294124E+06,
2461540.500000000, A.D. 2027-May-15 00:00:00.0000, -3.956726237341468E+08, -3.012946562735332E+08, -2.263154367636487E+06,
2461547.500000000, A.D. 2027-May-22 00:00:00.0000, -3.895231736103303E+08, -3.086284813183704E+08, -6.890378314945251E+05,
2461554.500000000, A.D. 2027-May-29 00:00:00.0000, -3.832196479085791E+08, -3.158402094717518E+08, 8.853516391911656E+05,
2461561.500000000, A.D. 2027-Jun-05 00:00:00.0000, -3.767642019585921E+08, -3.229267106219959E+08, 2.459390507414237E+06,
2461568.500000000, A.D. 2027-Jun-12 00:00:00.0000, -3.701590548146548E+08, -3.298848856435325E+08, 4.032452502068684E+06,
2461575.500000000, A.D. 2027-Jun-19 00:00:00.0000, -3.634064890638250E+08, -3.367116672872347E+08, 5.603908779169843E+06,
2461582.500000000, A.D. 2027-Jun-26 00:00:00.0000, -3.565088508131549E+08, -3.434040211972773E+08, 7.173128096599951E+06,
2461589.500000000, A.D. 2027-Jul-03 00:00:00.0000, -3.494685497228361E+08, -3.499589470466565E+08, 8.739476991228029E+06,
2461596.500000000, A.D. 2027-Jul-10 00:00:00.0000, -3.422880590476453E+08, -3.563734797828914E+08, 1.030231995610677E+07,
2461603.500000000, A.D. 2027-Jul-17 00:00:00.0000, -3.349699156494287E+08, -3.626446910227396E+08, 1.186101961165607E+07,
2461610.500000000, A.D. 2027-Jul-24 00:00:00.0000, -3.275167198230816E+08, -3.687696906585703E+08, 1.341493685176328E+07,
2461617.500000000, A.D. 2027-Jul-31 00:00:00.0000, -3.199311345233449E+08, -3.747456284406542E+08, 1.496343094669200E+07,
2461624.500000000, A.D. 2027-Aug-07 00:00:00.0000, -3.122158841917225E+08, -3.805696943831955E+08, 1.650585971564318E+07,
2461631.500000000, A.D. 2027-Aug-14 00:00:00.0000, -3.043737554827224E+08, -3.862391182468123E+08, 1.804157995947812E+07,
2461638.500000000, A.D. 2027-Aug-21 00:00:00.0000, -2.964075992692788E+08, -3.917511714618068E+08, 1.956994782199432E+07,
2461645.500000000, A.D. 2027-Aug-28 00:00:00.0000, -2.883203304953651E+08, -3.971031702899317E+08, 2.109031886348395E+07,
2461652.500000000, A.D. 2027-Sep-04 00:00:00.0000, -2.801149270563587E+08, -4.022924777224708E+08, 2.260204815951636E+07,
2461659.500000000, A.D. 2027-Sep-11 00:00:00.0000, -2.717944291012779E+08, -4.073165047752247E+08, 2.410449049885641E+07,
2461666.500000000, A.D. 2027-Sep-18 00:00:00.0000, -2.633619386221231E+08, -4.121727118297693E+08, 2.559700061502124E+07,
2461673.500000000, A.D. 2027-Sep-25 00:00:00.0000, -2.548206190999001E+08, -4.168586100979915E+08, 2.707893342394212E+07,
2461680.500000000, A.D. 2027-Oct-02 00:00:00.0000, -2.461736951310666E+08, -4.213717631817594E+08, 2.854964426295349E+07,
2461687.500000000, A.D. 2027-Oct-09 00:00:00.0000, -2.374244520110106E+08, -4.257097887311265E+08, 3.000848912859896E+07,
2461694.500000000, A.D. 2027-Oct-16 00:00:00.0000, -2.285762352102111E+08, -4.298703602540163E+08, 3.145482490287316E+07,
2461701.500000000, A.D. 2027-Oct-23 00:00:00.0000, -2.196324494812911E+08, -4.338512090806601E+08, 3.288800954338312E+07,
2461708.500000000, A.D. 2027-Oct-30 00:00:00.0000, -2.105965572196586E+08, -4.376501258703160E+08, 3.430740225263944E+07,
2461715.500000000, A.D. 2027-Nov-06 00:00:00.0000, -2.014720772383474E+08, -4.412649605306255E+08, 3.571236382506567E+07,
2461722.500000000, A.D. 2027-Nov-13 00:00:00.0000, -1.922625859397933E+08, -4.446936226250958E+08, 3.710225718387869E+07,
2461729.500000000, A.D. 2027-Nov-20 00:00:00.0000, -1.829717179808703E+08, -4.479340844551743E+08, 3.847644766306297E+07,
2461736.500000000, A.D. 2027-Nov-27 00:00:00.0000, -1.736031648132738E+08, -4.509843838532761E+08, 3.983430312870982E+07,
2461743.500000000, A.D. 2027-Dec-04 00:00:00.0000, -1.641606731227825E+08, -4.538426257721324E+08, 4.117519420037350E+07,
2461750.500000000, A.D. 2027-Dec-11 00:00:00.0000, -1.546480437173218E+08, -4.565069836324261E+08, 4.249849454433259E+07,
2461757.500000000, A.D. 2027-Dec-18 00:00:00.0000, -1.450691305875449E+08, -4.589757007653733E+08, 4.380358118582341E+07,
2461764.500000000, A.D. 2027-Dec-25 00:00:00.0000, -1.354278399861689E+08, -4.612470919500647E+08, 4.508983482602489E+07,
2461771.500000000, A.D. 2028-Jan-01 00:00:00.0000, -1.257281294827505E+08, -4.633195450290812E+08, 4.635664016111715E+07,
$$EOE